[{"OBJECT_NAME":"STARLINK-4344","OBJECT_ID":"2022-077AF","EPOCH":"2026-03-09T12:18:42.862176","MEAN_MOTION":15.05647696,"ECCENTRICITY":0.00013562,"INCLINATION":97.6026,"RA_OF_ASC_NODE":251.0167,"ARG_OF_PERICENTER":90.2104,"MEAN_ANOMALY":269.9278,"EPHEMERIS_TYPE":0,"CLASSIFICATION_TYPE":"U","NORAD_CAT_ID":53072,"ELEMENT_SET_NO":999,"REV_AT_EPOCH":20095,"BSTAR":2.2299596e-5,"MEAN_MOTION_DOT":2.61e-6,"MEAN_MOTION_DDOT":0},{"OBJECT_NAME":"OBJECT L","OBJECT_ID":"2024-205L","EPOCH":"2026-03-07T03:22:40.585728","MEAN_MOTION":15.10822925,"ECCENTRICITY":0.00547724,"INCLINATION":97.4213,"RA_OF_ASC_NODE":140.2188,"ARG_OF_PERICENTER":346.2042,"MEAN_ANOMALY":13.7688,"EPHEMERIS_TYPE":0,"CLASSIFICATION_TYPE":"U","NORAD_CAT_ID":61904,"ELEMENT_SET_NO":999,"REV_AT_EPOCH":7282,"BSTAR":0.00079283043,"MEAN_MOTION_DOT":0.00013606,"MEAN_MOTION_DDOT":0}]
